{
    "links": {
        "self": "http://www.neowsapp.com/rest/v1/neo/54051348?api_key=iIulBulltgU6a56xZRHN4H3l9WmuAYTsLGpBGhQ2"
    },
    "id": "54051348",
    "neo_reference_id": "54051348",
    "name": "(2020 QT4)",
    "designation": "2020 QT4",
    "nasa_jpl_url": "http://ssd.jpl.nasa.gov/sbdb.cgi?sstr=54051348",
    "absolute_magnitude_h": 25.384,
    "estimated_diameter": {
        "kilometers": {
            "estimated_diameter_min": 0.0222717825,
            "estimated_diameter_max": 0.0498012196
        },
        "meters": {
            "estimated_diameter_min": 22.2717824925,
            "estimated_diameter_max": 49.8012196333
        },
        "miles": {
            "estimated_diameter_min": 0.0138390398,
            "estimated_diameter_max": 0.0309450336
        },
        "feet": {
            "estimated_diameter_min": 73.0701548727,
            "estimated_diameter_max": 163.3898334219
        }
    },
    "is_potentially_hazardous_asteroid": false,
    "close_approach_data": [
        {
            "close_approach_date": "1974-11-09",
            "close_approach_date_full": "1974-Nov-09 00:00",
            "epoch_date_close_approach": 153187200000,
            "relative_velocity": {
                "kilometers_per_second": "22.3413467897",
                "kilometers_per_hour": "80428.8484428736",
                "miles_per_hour": "49975.3586338511"
            },
            "miss_distance": {
                "astronomical": "0.4866061506",
                "lunar": "189.2897925834",
                "kilometers": "72795243.658659222",
                "miles": "45232866.9335803836"
            },
            "orbiting_body": "Earth"
        },
        {
            "close_approach_date": "2020-08-23",
            "close_approach_date_full": "2020-Aug-23 07:45",
            "epoch_date_close_approach": 1598168700000,
            "relative_velocity": {
                "kilometers_per_second": "8.2546985874",
                "kilometers_per_hour": "29716.9149147084",
                "miles_per_hour": "18464.9352701976"
            },
            "miss_distance": {
                "astronomical": "0.0138227378",
                "lunar": "5.3770450042",
                "kilometers": "2067852.132448486",
                "miles": "1284903.7333256668"
            },
            "orbiting_body": "Earth"
        }
    ],
    "orbital_data": {
        "orbit_id": "6",
        "orbit_determination_date": "2020-08-29 07:49:05",
        "first_observation_date": "2020-08-22",
        "last_observation_date": "2020-08-29",
        "data_arc_in_days": 7,
        "observations_used": 60,
        "orbit_uncertainty": "7",
        "minimum_orbit_intersection": ".00297662",
        "jupiter_tisserand_invariant": "3.447",
        "epoch_osculation": "2459000.5",
        "eccentricity": ".5454884407518206",
        "semi_major_axis": "2.207053557913528",
        "inclination": "4.054765324257846",
        "ascending_node_longitude": "335.1216362612705",
        "orbital_period": "1197.616401655683",
        "perihelion_distance": "1.003131353951519",
        "perihelion_argument": "13.89974481362005",
        "aphelion_distance": "3.410975761875536",
        "perihelion_time": "2459099.946562641899",
        "mean_anomaly": "330.1066530972776",
        "mean_motion": ".3005970855962782",
        "equinox": "J2000",
        "orbit_class": {
            "orbit_class_type": "APO",
            "orbit_class_description": "Near-Earth asteroid orbits which cross the Earth’s orbit similar to that of 1862 Apollo",
            "orbit_class_range": "a (semi-major axis) > 1.0 AU; q (perihelion) < 1.017 AU"
        }
    },
    "is_sentry_object": false
}